OBJECT_NAME,OBJECT_ID,EPOCH,MEAN_MOTION,ECCENTRICITY,INCLINATION,RA_OF_ASC_NODE,ARG_OF_PERICENTER,MEAN_ANOMALY,EPHEMERIS_TYPE,CLASSIFICATION_TYPE,NORAD_CAT_ID,ELEMENT_SET_NO,REV_AT_EPOCH,BSTAR,MEAN_MOTION_DOT,MEAN_MOTION_DDOT
SL-16 R/B,1994-077B,2026-06-06T17:35:43.760832,14.15574110,.00025923,70.9807,165.1562,333.8707,26.2285,0,U,23405,999,62883,-.12734012E-3,-.297E-5,0
ARIANE 40+ R/B,1995-021B,2026-06-06T15:25:03.999360,14.39827571,.00058062,98.4412,227.8693,227.9484,255.2585,0,U,23561,999,63204,.10138467E-3,.275E-5,0
SL-16 R/B,1995-058B,2026-06-06T19:33:45.014976,14.15505363,.00133436,71.0216,353.1362,334.4552,25.5910,0,U,23705,999,58046,-.54011175E-4,-.153E-5,0
SL-16 R/B,1996-051B,2026-06-06T18:18:00.269568,14.12442526,.00145707,70.7634,346.7124,352.8339,7.2570,0,U,24298,999,53422,.97895818E-4,.132E-5,0
ORBVIEW 2 (SEASTAR),1997-037A,2026-06-06T05:11:52.073952,14.35547902,.00028401,98.8681,323.9323,139.2437,220.8961,0,U,24883,999,52117,.11832729E-3,.294E-5,0
SL-16 R/B,1998-043G,2026-06-06T15:04:24.590496,14.26066813,.00108256,98.8359,111.6968,113.9621,246.2693,0,U,25400,999,45166,.44086741E-4,.6E-6,0
SL-16 R/B,1998-045B,2026-06-06T18:46:31.526976,14.16204379,.0009537,71.0120,354.2122,253.9614,106.0459,0,U,25407,999,43971,.79798989E-4,.11E-5,0
ISS (ZARYA),1998-067A,2026-06-06T20:52:03.052128,15.49642340,.00069776,51.6338,351.1688,142.0049,218.1433,0,U,25544,999,57015,.17236766E-3,.9276E-4,0
CZ-4B R/B,1999-025C,2026-06-06T20:38:31.212672,14.18281720,.00382575,98.6488,199.9581,88.5039,84.6770,0,U,25732,999,40080,.40213776E-4,.41E-6,0
OKEAN-O,1999-039A,2026-06-06T16:02:55.634208,14.80454739,.00018587,97.9319,216.5869,79.3700,280.7721,0,U,25860,999,44755,.95547592E-4,.678E-5,0
SL-16 R/B,1999-039B,2026-06-06T15:11:09.602592,14.81834725,.00140879,97.9842,216.5254,333.8280,26.2219,0,U,25861,999,45003,.71887793E-4,.515E-5,0
DELTA 2 R/B,1999-041E,2026-06-06T16:47:58.789536,14.11997056,.05009929,51.7661,305.6881,251.0146,103.5876,0,U,25876,999,37560,.16609722E-3,.798E-5,0
HELIOS 1B,1999-064A,2026-06-06T14:54:21.335328,14.87978310,.00023165,98.1622,62.4548,106.6511,253.4959,0,U,25977,999,69848,.18005068E-3,.1593E-4,0
TERRA,1999-068A,2026-06-06T22:47:36.971808,14.61094985,.00008794,97.9460,207.9015,241.8114,174.8380,0,U,25994,999,40811,.91562476E-4,.406E-5,0
SL-16 R/B,2000-006B,2026-06-06T14:36:47.505024,14.15837134,.0015006,71.0034,270.8671,39.8042,320.4179,0,U,26070,999,36114,-.49904E-4,-.146E-5,0
TITAN 4B R/B,2000-047B,2026-06-06T22:14:40.092288,15.10137507,.00455119,67.9877,149.4526,297.4319,62.2205,0,U,26474,999,40638,.21838621E-3,.3519E-4,0
ENVISAT,2002-009A,2026-06-06T11:35:34.889280,14.39062351,.00013298,98.3830,109.0406,91.0694,27.1263,0,U,27386,999,27194,.50473411E-4,.113E-5,0
IDEFIX & ARIANE 42P R/B,2002-021B,2026-06-06T13:43:46.462656,14.31077154,.0010642,98.5941,95.1704,288.5791,71.4235,0,U,27422,999,25673,.1109E-3,.248E-5,0
AQUA,2002-022A,2026-06-06T20:41:25.708704,14.62142370,.00015068,98.4272,126.9391,55.3541,29.1016,0,U,27424,999,28176,.18286171E-3,.87E-5,0
CZ-4B R/B,2002-024C,2026-06-06T15:22:56.096256,14.14562687,.00510073,98.8703,210.5289,129.5946,344.9197,0,U,27432,999,24181,.48237076E-4,.5E-6,0
MIDORI II (ADEOS-II),2002-056A,2026-06-06T15:18:26.533440,14.29343868,.00022117,98.7873,116.8083,91.6714,268.4721,0,U,27597,999,22300,.13688203E-3,.303E-5,0
H-2A R/B,2002-056E,2026-06-06T15:15:35.501184,14.33817570,.0068876,98.3308,114.6950,256.5066,277.2195,0,U,27601,999,22685,.95605E-4,.231E-5,0
CZ-4B R/B,2003-049C,2026-06-06T17:02:56.511456,14.55093185,.00473527,98.6896,156.1399,321.2391,38.5411,0,U,28059,999,19954,.94927892E-4,.364E-5,0
CZ-2C R/B,2004-012C,2026-06-06T09:06:39.791808,15.76941093,.00088254,97.7089,231.8036,332.1519,27.9272,0,U,28222,999,21819,.75160432E-3,.122901E-2,0
SL-16 R/B,2004-021B,2026-06-06T09:54:49.369824,14.14612822,.00074769,71.0024,46.3008,267.0875,92.9392,0,U,28353,999,13538,-.61348062E-4,-.166E-5,0
CZ-4B R/B,2004-035C,2026-06-06T16:07:53.240736,15.30469234,.00312368,97.3371,190.8652,15.7592,344.4614,0,U,28415,999,19351,.30615196E-3,.9079E-4,0
CZ-2C R/B,2004-046B,2026-06-06T16:10:32.370528,14.27024295,.01381166,98.1952,67.1111,251.5842,107.0282,0,U,28480,999,12119,.50479592E-4,.94E-6,0
ARIANE 5 R/B,2004-049H,2026-06-06T18:09:43.015968,14.85434487,.00850715,98.2717,329.6076,62.8759,298.1100,0,U,28499,999,15901,.10027614E-3,.858E-5,0
CZ-2D R/B,2005-024B,2026-06-06T13:38:30.447744,15.68398870,.00051332,97.3492,176.4758,75.7936,284.3895,0,U,28738,999,15367,.57932888E-3,.65414E-3,0
ALOS (DAICHI),2006-002A,2026-06-06T11:19:57.700704,14.70029043,.0001847,98.1318,113.0734,63.0548,297.0846,0,U,28931,999,8652,.21550934E-3,.1243E-4,0
